{"type": "FeatureCollection", "features": [{"type": "Feature", "properties": {"norad_id": 66454, "name": "VIASAT-3 F2", "group": "last-30-days", "lat": -3.732888789068707, "lon": -110.7093198244443, "alt_km": 20999.20420018231, "timestamp": "2025-12-12T11:38:30.168481+00:00", "meta": {"OBJECT_NAME": "VIASAT-3 F2", "OBJECT_ID": "2025-261A", "EPOCH": "2025-12-08T12:11:15.383616", "MEAN_MOTION": 2.19142646, "ECCENTRICITY": 0.22792154, "INCLINATION": 5.457, "RA_OF_ASC_NODE": 292.6501, "ARG_OF_PERICENTER": 190.5469, "MEAN_ANOMALY": 204.5187, "EPHEMERIS_TYPE": 0, "CLASSIFICATION_TYPE": "U", "NORAD_CAT_ID": 66454, "ELEMENT_SET_NO": 999, "REV_AT_EPOCH": 55, "BSTAR": 0, "MEAN_MOTION_DOT": -8.1e-07, "MEAN_MOTION_DDOT": 0}, "tle": {"line1": "1 66454U 25261A   25342.50781694 -.00000081  00000+0  00000+0 0  9995", "line2": "2 66454   5.4570 292.6501 2279215 190.5469 204.5187  2.19142646   557"}}, "geometry": {"type": "Point", "coordinates": [-110.7093198244443, -3.732888789068707]}}, {"type": "Feature", "properties": {"norad_id": 66455, "name": "ATLAS 5 CENTAUR R/B", "group": "last-30-days", "lat": 6.127564206113918, "lon": 27.027674791666534, "alt_km": 16755.419834258766, "timestamp": "2025-12-12T11:38:30.168533+00:00", "meta": {"OBJECT_NAME": "ATLAS 5 CENTAUR R/B", "OBJECT_ID": "2025-261B", "EPOCH": "2025-12-11T21:33:51.291648", "MEAN_MOTION": 2.28259867, "ECCENTRICITY": 0.23294668, "INCLINATION": 6.1468, "RA_OF_ASC_NODE": 291.7004, "ARG_OF_PERICENTER": 186.3152, "MEAN_ANOMALY": 173.4569, "EPHEMERIS_TYPE": 0, "CLASSIFICATION_TYPE": "U", "NORAD_CAT_ID": 66455, "ELEMENT_SET_NO": 999, "REV_AT_EPOCH": 63, "BSTAR": 0, "MEAN_MOTION_DOT": -7.7e-07, "MEAN_MOTION_DDOT": 0}, "tle": {"line1": "1 66455U 25261B   25345.89851032 -.00000077  00000+0  00000+0 0  9990", "line2": "2 66455   6.1468 291.7004 2329466 186.3152 173.4569  2.28259867   637"}}, "geometry": {"type": "Point", "coordinates": [27.027674791666534, 6.127564206113918]}}, {"type": "Feature", "properties": {"norad_id": 66456, "name": "STARLINK-35643", "group": "last-30-days", "lat": 2.0794035748814927, "lon": -109.15400809109401, "alt_km": 444.0480078641758, "timestamp": "2025-12-12T11:38:30.168552+00:00", "meta": {"OBJECT_NAME": "STARLINK-35643", "OBJECT_ID": "2025-262A", "EPOCH": "2025-12-12T00:00:04.999104", "MEAN_MOTION": 15.40629698, "ECCENTRICITY": 0.0001427, "INCLINATION": 43.0001, "RA_OF_ASC_NODE": 75.8744, "ARG_OF_PERICENTER": 290.705, "MEAN_ANOMALY": 72.9212, "EPHEMERIS_TYPE": 0, "CLASSIFICATION_TYPE": "U", "NORAD_CAT_ID": 66456, "ELEMENT_SET_NO": 999, "REV_AT_EPOCH": 551, "BSTAR": 0.001167, "MEAN_MOTION_DOT": 0.00048643, "MEAN_MOTION_DDOT": 0}, "tle": {"line1": "1 66456U 25262A   25346.00005786  .00048643  00000+0  11670-2 0  9991", "line2": "2 66456  43.0001  75.8744 0001427 290.7050  72.9212 15.40629698  5513"}}, "geometry": {"type": "Point", "coordinates": [-109.15400809109401, 2.0794035748814927]}}, {"type": "Feature", "properties": {"norad_id": 66457, "name": "STARLINK-35466", "group": "last-30-days", "lat": -14.684902189003193, "lon": -90.64884849937432, "alt_km": 444.7552872183196, "timestamp": "2025-12-12T11:38:30.168566+00:00", "meta": {"OBJECT_NAME": "STARLINK-35466", "OBJECT_ID": "2025-262B", "EPOCH": "2025-12-12T00:00:04.999104", "MEAN_MOTION": 15.40636313, "ECCENTRICITY": 0.0001406, "INCLINATION": 43.0003, "RA_OF_ASC_NODE": 75.8132, "ARG_OF_PERICENTER": 227.0772, "MEAN_ANOMALY": 161.4265, "EPHEMERIS_TYPE": 0, "CLASSIFICATION_TYPE": "U", "NORAD_CAT_ID": 66457, "ELEMENT_SET_NO": 999, "REV_AT_EPOCH": 551, "BSTAR": 0.00082711, "MEAN_MOTION_DOT": 0.00034329, "MEAN_MOTION_DDOT": 0}, "tle": {"line1": "1 66457U 25262B   25346.00005786  .00034329  00000+0  82711-3 0  9993", "line2": "2 66457  43.0003  75.8132 0001406 227.0772 161.4265 15.40636313  5512"}}, "geometry": {"type": "Point", "coordinates": [-90.64884849937432, -14.684902189003193]}}, {"type": "Feature", "properties": {"norad_id": 66458, "name": "STARLINK-35684", "group": "last-30-days", "lat": -6.401359159127961, "lon": -100.03686618756554, "alt_km": 443.97985868879096, "timestamp": "2025-12-12T11:38:30.168578+00:00", "meta": {"OBJECT_NAME": "STARLINK-35684", "OBJECT_ID": "2025-262C", "EPOCH": "2025-12-12T00:00:04.999104", "MEAN_MOTION": 15.40647637, "ECCENTRICITY": 0.0001351, "INCLINATION": 43.0001, "RA_OF_ASC_NODE": 75.8436, "ARG_OF_PERICENTER": 225.9748, "MEAN_ANOMALY": 150.096, "EPHEMERIS_TYPE": 0, "CLASSIFICATION_TYPE": "U", "NORAD_CAT_ID": 66458, "ELEMENT_SET_NO": 999, "REV_AT_EPOCH": 551, "BSTAR": 0.00066985, "MEAN_MOTION_DOT": 0.00027731, "MEAN_MOTION_DDOT": 0}, "tle": {"line1": "1 66458U 25262C   25346.00005786  .00027731  00000+0  66985-3 0  9998", "line2": "2 66458  43.0001  75.8436 0001351 225.9748 150.0960 15.40647637  5514"}}, "geometry": {"type": "Point", "coordinates": [-100.03686618756554, -6.401359159127961]}}, {"type": "Feature", "properties": {"norad_id": 66459, "name": "STARLINK-35449", "group": "last-30-days", "lat": -22.571584828621464, "lon": -80.52089208441912, "alt_km": 445.8403326524176, "timestamp": "2025-12-12T11:38:30.168590+00:00", "meta": {"OBJECT_NAME": "STARLINK-35449", "OBJECT_ID": "2025-262D", "EPOCH": "2025-12-12T04:00:01.998720", "MEAN_MOTION": 15.40632846, "ECCENTRICITY": 0.0001309, "INCLINATION": 43.0001, "RA_OF_ASC_NODE": 74.822, "ARG_OF_PERICENTER": 274.8286, "MEAN_ANOMALY": 331.4139, "EPHEMERIS_TYPE": 0, "CLASSIFICATION_TYPE": "U", "NORAD_CAT_ID": 66459, "ELEMENT_SET_NO": 999, "REV_AT_EPOCH": 554, "BSTAR": 0.0020381, "MEAN_MOTION_DOT": 0.00085603, "MEAN_MOTION_DDOT": 0}, "tle": {"line1": "1 66459U 25262D   25346.16668980  .00085603  00000+0  20381-2 0  9998", "line2": "2 66459  43.0001  74.8220 0001309 274.8286 331.4139 15.40632846  5540"}}, "geometry": {"type": "Point", "coordinates": [-80.52089208441912, -22.571584828621464]}}, {"type": "Feature", "properties": {"norad_id": 66460, "name": "STARLINK-35424", "group": "last-30-days", "lat": -29.75530174462339, "lon": -69.20241115319737, "alt_km": 445.72951061480217, "timestamp": "2025-12-12T11:38:30.168605+00:00", "meta": {"OBJECT_NAME": "STARLINK-35424", "OBJECT_ID": "2025-262E", "EPOCH": "2025-12-12T04:00:01.998720", "MEAN_MOTION": 15.40633642, "ECCENTRICITY": 0.0001604, "INCLINATION": 43.0002, "RA_OF_ASC_NODE": 74.7917, "ARG_OF_PERICENTER": 251.574, "MEAN_ANOMALY": 7.1133, "EPHEMERIS_TYPE": 0, "CLASSIFICATION_TYPE": "U", "NORAD_CAT_ID": 66460, "ELEMENT_SET_NO": 999, "REV_AT_EPOCH": 554, "BSTAR": 0.002923, "MEAN_MOTION_DOT": 0.00123519, "MEAN_MOTION_DDOT": 0}, "tle": {"line1": "1 66460U 25262E   25346.16668980  .00123519  00000+0  29230-2 0  9991", "line2": "2 66460  43.0002  74.7917 0001604 251.5740   7.1133 15.40633642  5546"}}, "geometry": {"type": "Point", "coordinates": [-69.20241115319737, -29.75530174462339]}}, {"type": "Feature", "properties": {"norad_id": 66461, "name": "STARLINK-35132", "group": "last-30-days", "lat": -35.81545095642029, "lon": -56.32361054236377, "alt_km": 446.42859657963345, "timestamp": "2025-12-12T11:38:30.168616+00:00", "meta": {"OBJECT_NAME": "STARLINK-35132", "OBJECT_ID": "2025-262F", "EPOCH": "2025-12-12T04:00:01.998720", "MEAN_MOTION": 15.40639038, "ECCENTRICITY": 0.0001429, "INCLINATION": 43.0003, "RA_OF_ASC_NODE": 74.761, "ARG_OF_PERICENTER": 282.745, "MEAN_ANOMALY": 348.3825, "EPHEMERIS_TYPE": 0, "CLASSIFICATION_TYPE": "U", "NORAD_CAT_ID": 66461, "ELEMENT_SET_NO": 999, "REV_AT_EPOCH": 554, "BSTAR": 0.0020476, "MEAN_MOTION_DOT": 0.00086024, "MEAN_MOTION_DDOT": 0}, "tle": {"line1": "1 66461U 25262F   25346.16668980  .00086024  00000+0  20476-2 0  9994", "line2": "2 66461  43.0003  74.7610 0001429 282.7450 348.3825 15.40639038  5540"}}, "geometry": {"type": "Point", "coordinates": [-56.32361054236377, -35.81545095642029]}}, {"type": "Feature", "properties": {"norad_id": 66462, "name": "STARLINK-35499", "group": "last-30-days", "lat": -40.291123658196554, "lon": -41.62942776988669, "alt_km": 446.46419883337694, "timestamp": "2025-12-12T11:38:30.168627+00:00", "meta": {"OBJECT_NAME": "STARLINK-35499", "OBJECT_ID": "2025-262G", "EPOCH": "2025-12-12T04:00:01.998720", "MEAN_MOTION": 15.40604478, "ECCENTRICITY": 0.0001392, "INCLINATION": 43.0003, "RA_OF_ASC_NODE": 74.7299, "ARG_OF_PERICENTER": 250.1432, "MEAN_ANOMALY": 33.4371, "EPHEMERIS_TYPE": 0, "CLASSIFICATION_TYPE": "U", "NORAD_CAT_ID": 66462, "ELEMENT_SET_NO": 999, "REV_AT_EPOCH": 554, "BSTAR": 0.0022485, "MEAN_MOTION_DOT": 0.00094492, "MEAN_MOTION_DDOT": 0}, "tle": {"line1": "1 66462U 25262G   25346.16668980  .00094492  00000+0  22485-2 0  9995", "line2": "2 66462  43.0003  74.7299 0001392 250.1432  33.4371 15.40604478  5540"}}, "geometry": {"type": "Point", "coordinates": [-41.62942776988669, -40.291123658196554]}}, {"type": "Feature", "properties": {"norad_id": 66463, "name": "STARLINK-35463", "group": "last-30-days", "lat": -42.65007904008207, "lon": -8.469795187254784, "alt_km": 446.2549694511117, "timestamp": "2025-12-12T11:38:30.168640+00:00", "meta": {"OBJECT_NAME": "STARLINK-35463", "OBJECT_ID": "2025-262H", "EPOCH": "2025-12-12T04:00:01.998720", "MEAN_MOTION": 15.4068103, "ECCENTRICITY": 0.0001523, "INCLINATION": 43.0006, "RA_OF_ASC_NODE": 74.6696, "ARG_OF_PERICENTER": 255.4622, "MEAN_ANOMALY": 52.8967, "EPHEMERIS_TYPE": 0, "CLASSIFICATION_TYPE": "U", "NORAD_CAT_ID": 66463, "ELEMENT_SET_NO": 999, "REV_AT_EPOCH": 554, "BSTAR": 0.0028599, "MEAN_MOTION_DOT": 0.00120997, "MEAN_MOTION_DDOT": 0}, "tle": {"line1": "1 66463U 25262H   25346.16668980  .00120997  00000+0  28599-2 0  9998", "line2": "2 66463  43.0006  74.6696 0001523 255.4622  52.8967 15.40681030  5544"}}, "geometry": {"type": "Point", "coordinates": [-8.469795187254784, -42.65007904008207]}}]}